#dP2020  3 13  0  0  0.00000000      96 __u+U ITR00 FIT  IAC
## 2096 432000.00000000   900.00000000 58921 0.0000000000000
+  114   C01C02C03C04C05C06C07C08C09C10C11C12C13C14C16C19C20
+        C21C22C23C24C25C26C27C28C29C30C32C33C34C35C36C37E01
+        E02E03E04E05E07E08E09E11E12E13E14E15E18E19E21E24E25
+        E26E27E30E31E33E36G01G02G03G04G05G06G07G08G09G10G11
+        G12G13G14G15G16G17G19G20G21G22G23G24G25G26G27G28G29
+        G30G31G32J01J02J03J07R01R02R03R04R05R07R08R09R11R12
+        R13R14R15R16R17R18R19R20R21R22R23R26  0  0  0  0  0
++        13 13 13 12 13  8  8  8  8  8  8  8  8  7  8  7  7
++         8  8  8  8  8  8  7  7  8  7  8  8  8  8  8  8  4
++         5  4  4  4  4  4  5  5  4  4  5  4  4  4  5  4  5
++         4  4  4  5  5  5  3  4  3  3  4  3  4  3  3  3  3
++         3  4  3  4  3  3  3  3  3  3  3  3  3  3  3  3  3
++         3  3  3  9  9  8  0  6  5  5  5  5  6  5  5  5  5
++         6  6  5  6  6  5  6  6  5  5  5  8  0  0  0  0  0
%c M  cc GPS ccc cccc cccc cccc cccc ccccc ccccc ccccc ccccc
%c cc cc ccc ccc cccc cccc cccc cccc ccccc ccccc ccccc ccccc
%f  0.0000000  0.000000000  0.00000000000  0.000000000000000
%f  0.0000000  0.000000000  0.00000000000  0.000000000000000
%i    0    0    0    0      0      0      0      0         0
%i    0    0    0    0      0      0      0      0         0
/* INFORMATION & ANALYSIS CENTER (IAC)            RAPID DATA
/* S/V CLOCKS ARE ALIGNED TO GNSS TIME                      
/* G:C1WC2W R:C1PC2P E:C1XC5X C:C2IC6I J:C1CC2S             
/* PCV:IGS14_2091 OL/AL:FES2004  NONE     YN ORB:CoN CLK:CoN
*  2020 03 13 13 15  0.00000000
PC01 -32274.497236  27104.649223    759.872184    308.257815
PC02   4369.997987  41949.455756    210.738539    485.556464
PC03 -14783.263492  39458.928294    826.274949     49.943121
PC04 -39593.602378  14455.564551    663.266965   -186.959121
PC05  21840.988011  36048.510169    -42.432061   -119.128610
PC06 -21890.694822  22658.423562 -27835.166526    240.861932
PC07 -17526.926923  37664.934484  -5263.738916    944.654995
PC08  -5718.308526  25283.039902  33439.018035   -153.647704
PC09  -6073.537558  24467.909854 -33597.621926    398.559454
PC10  -7453.474514  40601.582612   7612.204707   -750.837910
PC11 -26679.831623    485.939963   8150.978995   -237.773270
PC12 -23579.845514 -10890.244319 -10141.772709    331.395350
PC13   5937.397116  33537.967491  25118.137656    320.760846
PC14 -21420.603647   9463.257066  15167.511921    231.996895
PC16 -16843.108906  23632.358778 -30585.197497   -728.763452
PC19  20610.461745 -17367.602644  -7234.560255    350.868485
PC20  19098.919825  -1094.921336 -20306.671288   -857.995251
PC21  -6093.903065 -16447.928598  21729.176603   -168.718206
PC22  10241.198929 -23850.378106  10294.021974   -874.712996
PC23   -508.263348  24904.635175 -12586.502877   -920.949779
PC24 -17906.522230 -10273.823412 -18774.942630   -904.215994
PC25 -12598.835017  11143.941559 -22276.247154   -546.926539
PC26 -13165.107188 -24086.598036  -4931.908466    605.015438
PC27  15996.498739  15058.819048  17180.766492    294.457154
PC28  -4617.990834  15252.683128  22913.100197    285.410410
PC29  22185.848597  -7392.583805 -15226.168734    200.343223
PC30  27345.158072   5228.193366   1701.366216    286.018933
PC32   6239.853935  16372.741097 -21700.566781   -894.931009
PC33 -20559.802653  17374.047178   7338.246464   -913.654023
PC34 -27430.711782  -5053.788824  -1284.045686   -544.098838
PC35   4237.131821 -15430.539376 -22858.272117   -941.685796
PC36  12979.642050 -10597.780707  22333.605030   -822.515311
PC37  12287.846748  24689.682337   4337.275553   -859.306891
PE01  -3490.870457 -28166.456660  -8394.195159   -813.860043
PE02   3529.776194  28156.402259   8450.281818    119.084259
PE03   2742.663881  17404.174743 -23783.441380   -276.324485
PE04 -21270.105230  -5372.478481  19876.964312   -484.175794
PE05 -17624.974725  19375.225265 -13785.579574   -397.630641
PE07  27542.092793 -10018.800963  -4181.756708   -353.562971
PE08  21401.496508   4956.721609 -19841.914019   6207.369352
PE09 -27445.183065  10266.396862   4137.523124   6127.018880
PE11 -22941.126447   -400.686661  18715.434041   1710.779471
PE12 -25140.018227 -15588.006398   1398.798442   5906.423972
PE13  23020.099502    560.225658 -18581.448690    399.178347
PE14  -2883.117169 -20455.917886 -25161.171338   -938.773534
PE15  25238.383059  15375.963865  -1564.355110    874.137927
PE18   6863.372146  13953.440059  17657.841385  -1036.784702
PE19   -383.498968 -18067.418486  23447.316295     -1.156391
PE21   8780.440763 -26321.595805  10293.140725   -587.695897
PE24 -16229.941733   8814.272272 -23153.414367   5562.615734
PE25  -8848.418685  26266.246283 -10401.200350   -506.556305
PE26   7138.362926 -14886.881155 -24557.579356   3424.332580
PE27  16111.860451  -8998.964149  23138.465359    263.182015
PE30  13830.162211  13843.335088  22201.665980   4070.658150
PE31 -13947.229973 -13514.991525 -22334.363663   -471.980006
PE33 -12665.945833 -21169.616721 -16354.716515   -469.527368
PE36  -7304.367911  14588.995961  24708.995650    586.599739
PG01 -20391.857598 -12129.446300  12063.679961   -324.488578
PG02  12020.856313  22099.355933   9269.566443   -421.131749
PG03 -15462.159406  -1142.620468  21497.197569   -116.866810
PG04 -25720.789723  -1124.509643   6594.816032    -61.657595
PG05   4720.981092  20926.457649 -15665.298195     -9.049046
PG06   2027.441781  20330.319270  17004.736281   -229.976077
PG07 -15282.015832   4780.380578 -20970.291896   -234.812968
PG08 -19824.441344  -7548.096090 -16114.299705    -26.941196
PG09 -25239.887781   7421.776786  -3779.372577   -175.593976
PG10  11482.769440 -23485.089397  -3836.751759   -275.892152
PG11 -22848.210002 -12911.565057  -3341.801290   -335.237737
PG12  14008.514645   4650.959976  21842.917054    141.180460
PG13  12158.309233  13110.529614 -19788.838849     -6.095899
PG14   3223.022598 -15477.868945  21656.256798    -26.594270
PG15  21068.346282   6181.976134 -15511.527527   -245.275945
PG16  -2630.069041 -20487.823529 -16642.265014   -134.556993
PG17 -14052.110586  13772.960640  18240.162190    231.343215
PG19  -6178.042006  14503.061523  21081.474074   -186.362765
PG20  14736.417727 -16726.940082 -14362.455639    527.872748
PG21  13537.664846  -7286.968409 -20843.652754    -28.406386
PG22 -13184.554242 -10456.684737  20791.154435   -785.444230
PG23 -26055.533014    292.387445   6455.553341   -130.003185
PG24  21455.027741  12492.401381   9731.287163    -10.291008
PG25  16752.727702  -8338.190294  18502.881241     -9.240703
PG26   2951.250316 -25261.633286  -7272.306331    166.704270
PG27  -9339.143060 -12995.187543 -21385.337145   -237.266877
PG28 -12377.932886  23495.979288  -1457.576572    733.181446
PG29  26146.637636  -4151.105070  -2284.815860    -55.479916
PG30  -6890.136998  15493.540895 -20367.793246   -174.411741
PG31  -3588.733764 -21484.876438  14834.830666    -29.149913
PG32  12631.202573 -15036.342197  17888.645838    235.142810
PJ01 -32751.612150  26594.621518   4066.717666   -346.503092
PJ02 -19964.981750  27358.913036 -20661.928483     -1.824727
PJ03 -30155.770286  24124.251744  21967.853742     -1.090730
PJ07      0.000000      0.000000      0.000000 999999.999999
PR01  -9022.331236  17895.650704 -15767.675468     58.471228
PR02   9350.677239   6273.717515 -22843.157688    416.508350
PR03  19718.527287  -7697.044253 -14155.549478     11.453796
PR04  18686.893822 -17183.839021   2501.805369     41.847519
PR05   7159.209933 -16830.070451  17781.736445     46.671189
PR07 -19933.043942   8088.719203  13777.053608    -34.289349
PR08 -18769.441227  17116.500288  -2350.755200    -51.029638
PR09 -11029.723931 -16196.924837 -16358.313620    121.633368
PR11  -5811.864815  17112.769335 -17973.541810    -16.572236
PR12   2758.628951  25128.657472  -3496.371336    113.596852
PR13  10175.245476  18920.172861  13734.060894    -35.984034
PR14  11384.352201   1650.562935  22771.910501     49.079934
PR15   6134.078044 -16364.819342  18591.683089    106.122744
PR16  -3424.332868 -25025.078680   3015.271021     -2.055264
PR17  23819.911272   5131.155920  -7585.969984    308.659986
PR18  14359.937352  -4522.825377 -20553.608916     28.333176
PR19  -2043.531653 -11669.268877 -22585.527686    -83.550371
PR20 -19550.858144 -12793.214252 -10283.736907   -406.458625
PR21 -23584.782997  -4688.895572   8487.935893   -110.971818
PR22 -12097.563689   5824.491182  21726.732885    -17.672054
PR23   8943.430605  12990.924559  20042.322642    292.276351
PR26 -16776.348065 -13062.268104 -14060.241535   -403.760443
EOF
